{"type": "FeatureCollection", "features": [ {"type": "Feature", "properties": {"norad_id": 29892, "name": "FENGYUN 1C DEB", "group": "fengyun-1c-debris", "lat": -30.39134835630304, "lon": 138.72286219884492, "alt_km": 670.2720470746317, "timestamp": "2025-12-11T18:59:46.345325+00:00", "meta": {"OBJECT_NAME": "FENGYUN 1C DEB", "OBJECT_ID": "1999-025GN", "EPOCH": "2025-12-11T06:17:16.081152", "MEAN_MOTION": 14.32138011, "ECCENTRICITY": 0.01912252, "INCLINATION": 99.1814, "RA_OF_ASC_NODE": 132.7193, "ARG_OF_PERICENTER": 301.6053, "MEAN_ANOMALY": 178.1033, "EPHEMERIS_TYPE": 0, "CLASSIFICATION_TYPE": "U", "NORAD_CAT_ID": 29892, "ELEMENT_SET_NO": 999, "REV_AT_EPOCH": 96628, "BSTAR": 0.0061214541, "MEAN_MOTION_DOT": 0.0002016, "MEAN_MOTION_DDOT": 0}, "tle": {"line1": "1 29892U 99025GN  25345.26199168  .00020160  00000+0  61215-2 0  9991", "line2": "2 29892  99.1814 132.7193 0191225 301.6053 178.1033 14.32138011966286"}}, "geometry": {"type": "Point", "coordinates": [138.72286219884492, -30.39134835630304]}}, {"type": "Feature", "properties": {"norad_id": 29893, "name": "FENGYUN 1C DEB", "group": "fengyun-1c-debris", "lat": -80.88964516359997, "lon": 151.75035893608955, "alt_km": 1029.6066188100667, "timestamp": "2025-12-11T18:59:46.345335+00:00", "meta": {"OBJECT_NAME": "FENGYUN 1C DEB", "OBJECT_ID": "1999-025GP", "EPOCH": "2025-12-11T05:38:43.572192", "MEAN_MOTION": 13.79460137, "ECCENTRICITY": 0.01736247, "INCLINATION": 98.5536, "RA_OF_ASC_NODE": 81.4438, "ARG_OF_PERICENTER": 157.4743, "MEAN_ANOMALY": 232.8621, "EPHEMERIS_TYPE": 0, "CLASSIFICATION_TYPE": "U", "NORAD_CAT_ID": 29893, "ELEMENT_SET_NO": 999, "REV_AT_EPOCH": 95119, "BSTAR": 0.00032157206, "MEAN_MOTION_DOT": 3.33e-06, "MEAN_MOTION_DDOT": 0}, "tle": {"line1": "1 29893U 99025GP  25345.23522653  .00000333  00000+0  32157-3 0  9992", "line2": "2 29893  98.5536  81.4438 0173624 157.4743 232.8621 13.79460137951191"}}, "geometry": {"type": "Point", "coordinates": [151.75035893608955, -80.88964516359997]}}, {"type": "Feature", "properties": {"norad_id": 29894, "name": "FENGYUN 1C DEB", "group": "fengyun-1c-debris", "lat": -65.6376867720984, "lon": 61.77053957106945, "alt_km": 1018.106154961587, "timestamp": "2025-12-11T18:59:46.345346+00:00", "meta": {"OBJECT_NAME": "FENGYUN 1C DEB", "OBJECT_ID": "1999-025GQ", "EPOCH": "2025-12-11T02:04:16.383936", "MEAN_MOTION": 13.8096949, "ECCENTRICITY": 0.0168557, "INCLINATION": 99.486, "RA_OF_ASC_NODE": 39.3947, "ARG_OF_PERICENTER": 49.4134, "MEAN_ANOMALY": 340.8607, "EPHEMERIS_TYPE": 0, "CLASSIFICATION_TYPE": "U", "NORAD_CAT_ID": 29894, "ELEMENT_SET_NO": 999, "REV_AT_EPOCH": 95054, "BSTAR": 0.00067703255, "MEAN_MOTION_DOT": 7.51e-06, "MEAN_MOTION_DDOT": 0}, "tle": {"line1": "1 29894U 99025GQ  25345.08630074  .00000751  00000+0  67703-3 0  9992", "line2": "2 29894  99.4860  39.3947 0168557  49.4134 340.8607 13.80969490950542"}}, "geometry": {"type": "Point", "coordinates": [61.77053957106945, -65.6376867720984]}}, {"type": "Feature", "properties": {"norad_id": 29895, "name": "FENGYUN 1C DEB", "group": "fengyun-1c-debris", "lat": -59.48549398892224, "lon": 111.29887758488911, "alt_km": 721.9279789241018, "timestamp": "2025-12-11T18:59:46.345356+00:00", "meta": {"OBJECT_NAME": "FENGYUN 1C DEB", "OBJECT_ID": "1999-025GR", "EPOCH": "2025-12-11T05:45:47.446272", "MEAN_MOTION": 14.08207188, "ECCENTRICITY": 0.0299298, "INCLINATION": 99.8843, "RA_OF_ASC_NODE": 93.4875, "ARG_OF_PERICENTER": 347.8288, "MEAN_ANOMALY": 39.9968, "EPHEMERIS_TYPE": 0, "CLASSIFICATION_TYPE": "U", "NORAD_CAT_ID": 29895, "ELEMENT_SET_NO": 999, "REV_AT_EPOCH": 95503, "BSTAR": 0.002828604, "MEAN_MOTION_DOT": 7.238e-05, "MEAN_MOTION_DDOT": 0}, "tle": {"line1": "1 29895U 99025GR  25345.24013248  .00007238  00000+0  28286-2 0  9998", "line2": "2 29895  99.8843  93.4875 0299298 347.8288  39.9968 14.08207188955036"}}, "geometry": {"type": "Point", "coordinates": [111.29887758488911, -59.48549398892224]}}, {"type": "Feature", "properties": {"norad_id": 29896, "name": "FENGYUN 1C DEB", "group": "fengyun-1c-debris", "lat": 22.15701213559889, "lon": 61.42374577264679, "alt_km": 906.6540940973919, "timestamp": "2025-12-11T18:59:46.345366+00:00", "meta": {"OBJECT_NAME": "FENGYUN 1C DEB", "OBJECT_ID": "1999-025GS", "EPOCH": "2025-12-11T04:47:40.703424", "MEAN_MOTION": 13.65364041, "ECCENTRICITY": 0.02396393, "INCLINATION": 99.4223, "RA_OF_ASC_NODE": 236.9714, "ARG_OF_PERICENTER": 105.8787, "MEAN_ANOMALY": 22.3464, "EPHEMERIS_TYPE": 0, "CLASSIFICATION_TYPE": "U", "NORAD_CAT_ID": 29896, "ELEMENT_SET_NO": 999, "REV_AT_EPOCH": 94021, "BSTAR": 0.00074026628, "MEAN_MOTION_DOT": 6.92e-06, "MEAN_MOTION_DDOT": 0}, "tle": {"line1": "1 29896U 99025GS  25345.19977666  .00000692  00000+0  74027-3 0  9998", "line2": "2 29896  99.4223 236.9714 0239639 105.8787  22.3464 13.65364041940215"}}, "geometry": {"type": "Point", "coordinates": [61.42374577264679, 22.15701213559889]}}, {"type": "Feature", "properties": {"norad_id": 29897, "name": "FENGYUN 1C DEB", "group": "fengyun-1c-debris", "lat": 76.23231821854151, "lon": 68.47114072120476, "alt_km": 868.7085513100519, "timestamp": "2025-12-11T18:59:46.345377+00:00", "meta": {"OBJECT_NAME": "FENGYUN 1C DEB", "OBJECT_ID": "1999-025GT", "EPOCH": "2025-12-10T14:20:06.186912", "MEAN_MOTION": 13.57171087, "ECCENTRICITY": 0.0296432, "INCLINATION": 98.629, "RA_OF_ASC_NODE": 209.1266, "ARG_OF_PERICENTER": 144.365, "MEAN_ANOMALY": 246.9319, "EPHEMERIS_TYPE": 0, "CLASSIFICATION_TYPE": "U", "NORAD_CAT_ID": 29897, "ELEMENT_SET_NO": 999, "REV_AT_EPOCH": 92911, "BSTAR": 0.0025221, "MEAN_MOTION_DOT": 2.357e-05, "MEAN_MOTION_DDOT": 0}, "tle": {"line1": "1 29897U 99025GT  25344.59729383  .00002357  00000+0  25221-2 0  9994", "line2": "2 29897  98.6290 209.1266 0296432 144.3650 246.9319 13.57171087929112"}}, "geometry": {"type": "Point", "coordinates": [68.47114072120476, 76.23231821854151]}}, {"type": "Feature", "properties": {"norad_id": 29898, "name": "FENGYUN 1C DEB", "group": "fengyun-1c-debris", "lat": 78.17717584570045, "lon": -158.03030406683843, "alt_km": 996.1888310438644, "timestamp": "2025-12-11T18:59:46.345387+00:00", "meta": {"OBJECT_NAME": "FENGYUN 1C DEB", "OBJECT_ID": "1999-025GU", "EPOCH": "2025-12-11T06:19:01.044192", "MEAN_MOTION": 13.70297613, "ECCENTRICITY": 0.04271808, "INCLINATION": 98.2233, "RA_OF_ASC_NODE": 337.8217, "ARG_OF_PERICENTER": 193.2879, "MEAN_ANOMALY": 185.3777, "EPHEMERIS_TYPE": 0, "CLASSIFICATION_TYPE": "U", "NORAD_CAT_ID": 29898, "ELEMENT_SET_NO": 999, "REV_AT_EPOCH": 93141, "BSTAR": 0.0029796122, "MEAN_MOTION_DOT": 4.989e-05, "MEAN_MOTION_DDOT": 0}, "tle": {"line1": "1 29898U 99025GU  25345.26320653  .00004989  00000+0  29796-2 0  9991", "line2": "2 29898  98.2233 337.8217 0427180 193.2879 185.3777 13.70297613931412"}}, "geometry": {"type": "Point", "coordinates": [-158.03030406683843, 78.17717584570045]}}, {"type": "Feature", "properties": {"norad_id": 29899, "name": "FENGYUN 1C DEB", "group": "fengyun-1c-debris", "lat": -77.02144979185087, "lon": -79.96087542520118, "alt_km": 1391.062147298785, "timestamp": "2025-12-11T18:59:46.345398+00:00", "meta": {"OBJECT_NAME": "FENGYUN 1C DEB", "OBJECT_ID": "1999-025GV", "EPOCH": "2025-12-10T09:24:10.986048", "MEAN_MOTION": 13.37491372, "ECCENTRICITY": 0.03536294, "INCLINATION": 98.6616, "RA_OF_ASC_NODE": 140.2482, "ARG_OF_PERICENTER": 84.877, "MEAN_ANOMALY": 279.2614, "EPHEMERIS_TYPE": 0, "CLASSIFICATION_TYPE": "U", "NORAD_CAT_ID": 29899, "ELEMENT_SET_NO": 999, "REV_AT_EPOCH": 92053, "BSTAR": 0.00027344839, "MEAN_MOTION_DOT": 1.73e-06, "MEAN_MOTION_DDOT": 0}, "tle": {"line1": "1 29899U 99025GV  25344.39179382  .00000173  00000+0  27345-3 0  9996", "line2": "2 29899  98.6616 140.2482 0353629  84.8770 279.2614 13.37491372920538"}}, "geometry": {"type": "Point", "coordinates": [-79.96087542520118, -77.02144979185087]}}, {"type": "Feature", "properties": {"norad_id": 29901, "name": "FENGYUN 1C DEB", "group": "fengyun-1c-debris", "lat": 73.05357478710918, "lon": 7.090810594598399, "alt_km": 1411.9201504697594, "timestamp": "2025-12-11T18:59:46.345408+00:00", "meta": {"OBJECT_NAME": "FENGYUN 1C DEB", "OBJECT_ID": "1999-025GX", "EPOCH": "2025-12-10T17:19:48.631296", "MEAN_MOTION": 13.33251871, "ECCENTRICITY": 0.03791781, "INCLINATION": 98.7443, "RA_OF_ASC_NODE": 155.8392, "ARG_OF_PERICENTER": 290.3519, "MEAN_ANOMALY": 83.7175, "EPHEMERIS_TYPE": 0, "CLASSIFICATION_TYPE": "U", "NORAD_CAT_ID": 29901, "ELEMENT_SET_NO": 999, "REV_AT_EPOCH": 91892, "BSTAR": 0.00058219603, "MEAN_MOTION_DOT": 3.9e-06, "MEAN_MOTION_DDOT": 0}, "tle": {"line1": "1 29901U 99025GX  25344.72209064  .00000390  00000+0  58220-3 0  9995", "line2": "2 29901  98.7443 155.8392 0379178 290.3519  83.7175 13.33251871918929"}}, "geometry": {"type": "Point", "coordinates": [7.090810594598399, 73.05357478710918]}}, {"type": "Feature", "properties": {"norad_id": 29904, "name": "FENGYUN 1C DEB", "group": "fengyun-1c-debris", "lat": -62.109076869256434, "lon": 41.11167085806485, "alt_km": 616.1357966516052, "timestamp": "2025-12-11T18:59:46.345419+00:00", "meta": {"OBJECT_NAME": "FENGYUN 1C DEB", "OBJECT_ID": "1999-025HA", "EPOCH": "2025-12-10T20:00:15.907680", "MEAN_MOTION": 14.44467802, "ECCENTRICITY": 0.0207857, "INCLINATION": 99.0419, "RA_OF_ASC_NODE": 22.5832, "ARG_OF_PERICENTER": 324.3596, "MEAN_ANOMALY": 34.386, "EPHEMERIS_TYPE": 0, "CLASSIFICATION_TYPE": "U", "NORAD_CAT_ID": 29904, "ELEMENT_SET_NO": 999, "REV_AT_EPOCH": 99036, "BSTAR": 0.00065509, "MEAN_MOTION_DOT": 2.885e-05, "MEAN_MOTION_DDOT": 0}, "tle": {"line1": "1 29904U 99025HA  25344.83351745  .00002885  00000+0  65509-3 0  9993", "line2": "2 29904  99.0419  22.5832 0207857 324.3596  34.3860 14.44467802990362"}}, "geometry": {"type": "Point", "coordinates": [41.11167085806485, -62.109076869256434]}}]}